TIANMU-1 21             
1 58662U 23208C   26165.57500080  .00008893  00000+0  26385-3 0  9991
2 58662  97.4506 285.1630 0006156 334.8822  25.2121 15.35036702137166
TIANMU-1 22             
1 58663U 23208D   26165.52380463  .00007209  00000+0  24307-3 0  9990
2 58663  97.4501 281.7478 0003461  13.8896 346.2439 15.31025643136924
TIANMU-1 15             
1 58700U 24004A   26165.54298446  .00005430  00000+0  20760-3 0  9991
2 58700  97.4662 351.7330 0006967  11.8448 348.2953 15.27000232135377
TIANMU-1 16             
1 58701U 24004B   26165.53174476  .00005542  00000+0  21362-3 0  9990
2 58701  97.4607 350.9616 0006088  17.1463 342.9980 15.26725218135373
TIANMU-1 17             
1 58702U 24004C   26165.51719659  .00005468  00000+0  21081-3 0  9992
2 58702  97.4634 351.4311 0005770  23.2686 336.8812 15.26724521135365
TIANMU-1 18             
1 58703U 24004D   26165.55956700  .00004930  00000+0  18896-3 0  9990
2 58703  97.4653 351.7272 0004304  23.8105 336.3332 15.26982365135375
INSAT-3DS               
1 58990U 24033A   26165.49113014 -.00000149  00000+0  00000+0 0  9999
2 58990   0.0433 124.1389 0000980 310.7116  86.8467  1.00271622 47042
METEOR-M2 4             
1 59051U 24039A   26165.51043541 -.00000007  00000+0  16333-4 0  9998
2 59051  98.7009 124.8421 0007140 168.4596 191.6746 14.22429301118886
GOES 19                 
1 60133U 24119A   26165.47336500 -.00000241  00000+0  00000+0 0  9994
2 60133   0.0106  99.5581 0000373  89.5253 168.9095  1.00272010  6933
MTG-S1                  
1 64723U 25143A   26165.33153079 -.00000023  00000+0  00000+0 0  9992
2 64723   0.6057 338.3103 0000982  11.4197  28.7810  1.00271745  3393
METOP-SGA1              
1 65159U 25172A   26165.39364102  .00000041  00000+0  38382-4 0  9993
2 65159  98.6644 225.1723 0000918  91.8157 268.3126 14.21509331 43392
FENGYUN 3H              
1 65815U 25219A   26165.43380623  .00000037  00000+0  37939-4 0  9997
2 65815  98.6768 106.2565 0001598  78.0574 282.0782 14.19920002 36994
