OBJECT_NAME,OBJECT_ID,EPOCH,MEAN_MOTION,ECCENTRICITY,INCLINATION,RA_OF_ASC_NODE,ARG_OF_PERICENTER,MEAN_ANOMALY,EPHEMERIS_TYPE,CLASSIFICATION_TYPE,NORAD_CAT_ID,ELEMENT_SET_NO,REV_AT_EPOCH,BSTAR,MEAN_MOTION_DOT,MEAN_MOTION_DDOT
TIANMU-1 21,2023-208C,2026-06-14T13:48:00.069120,15.35036702,.0006156,97.4506,285.1630,334.8822,25.2121,0,U,58662,999,13716,.26385E-3,.8893E-4,0
TIANMU-1 22,2023-208D,2026-06-14T12:34:16.720032,15.31025643,.0003461,97.4501,281.7478,13.8896,346.2439,0,U,58663,999,13692,.24307E-3,.7209E-4,0
TIANMU-1 15,2024-004A,2026-06-14T13:01:53.857344,15.27000232,.0006967,97.4662,351.7330,11.8448,348.2953,0,U,58700,999,13537,.2076E-3,.543E-4,0
TIANMU-1 16,2024-004B,2026-06-14T12:45:42.747264,15.26725218,.0006088,97.4607,350.9616,17.1463,342.9980,0,U,58701,999,13537,.21362E-3,.5542E-4,0
TIANMU-1 17,2024-004C,2026-06-14T12:24:45.785376,15.26724521,.000577,97.4634,351.4311,23.2686,336.8812,0,U,58702,999,13536,.21081E-3,.5468E-4,0
TIANMU-1 18,2024-004D,2026-06-14T13:25:46.588800,15.26982365,.0004304,97.4653,351.7272,23.8105,336.3332,0,U,58703,999,13537,.18896E-3,.493E-4,0
INSAT-3DS,2024-033A,2026-06-14T11:47:13.644096,1.00271622,.000098,0.0433,124.1389,310.7116,86.8467,0,U,58990,999,4704,0,-.149E-5,0
METEOR-M2 4,2024-039A,2026-06-14T12:15:01.619424,14.22429301,.000714,98.7009,124.8421,168.4596,191.6746,0,U,59051,999,11888,.16333E-4,-.7E-7,0
GOES 19,2024-119A,2026-06-14T11:21:38.736000,1.00272010,.0000373,0.0106,99.5581,89.5253,168.9095,0,U,60133,999,693,0,-.241E-5,0
MTG-S1,2025-143A,2026-06-14T07:57:24.260256,1.00271745,.0000982,0.6057,338.3103,11.4197,28.7810,0,U,64723,999,339,0,-.23E-6,0
METOP-SGA1,2025-172A,2026-06-14T09:26:50.584128,14.21509331,.0000918,98.6644,225.1723,91.8157,268.3126,0,U,65159,999,4339,.38382E-4,.41E-6,0
FENGYUN 3H,2025-219A,2026-06-14T10:24:40.858272,14.19920002,.0001598,98.6768,106.2565,78.0574,282.0782,0,U,65815,999,3699,.37939E-4,.37E-6,0
